[
  {
    "Hospital_Name": "Medical City Denton Hospital",
    "Hospital_Address": "3535 S Interstate 35, Denton",
    "Hospital_Phone_Number": "214-231-2273",
    "State": "TX",
    "Zip_Code": "75235"
  },
  {
    "Hospital_Name": "Texas Health Presbyterian Hospital",
    "Hospital_Address": "3000 N Interstate 35, Denton",
    "Hospital_Phone_Number": "469-801-4500",
    "State": "TX",
    "Zip_Code": "76201"
  },
  {
    "Hospital_Name": "Kindred Hospital North Florida",
    "Hospital_Address": "801 Oak St, Fort Myers",
    "Hospital_Phone_Number": "904-284-9230",
    "State": "FL",
    "Zip_Code": "32043"
  },
  {
    "Hospital_Name": "Florida Medical Center",
    "Hospital_Address": "5000 W Oakland Park, Fort Myers",
    "Hospital_Phone_Number": "954-735-6000",
    "State": "FL",
    "Zip_Code": "33313"
  },
  {
    "Hospital_Name": "Kentfield Hospital",
    "Hospital_Address": "450 Stanyan St 6th Floor, San Francisco",
    "Hospital_Phone_Number": "415-688-3200",
    "State": "CA",
    "Zip_Code": "94117"
  },
  {
    "Hospital_Name": "Harborview Medical Center",
    "Hospital_Address": "Main Hospital, 325 9th Ave, Seattle",
    "Hospital_Phone_Number": "206-744-3211",
    "State": "WA",
    "Zip_Code": "98104"
  },
  {
    "Hospital_Name": "Mayhill Hospital",
    "Hospital_Address": "2809 S Mayhill Rd, Denton",
    "Hospital_Phone_Number": "940-239-3000",
    "State": "TX",
    "Zip_Code": "76208"
  },
  {
    "Hospital_Name": "Jackson General Hospital",
    "Hospital_Address": "122 Pinnell St, Ripley",
    "Hospital_Phone_Number": "340-372-4125",
    "State": "WW",
    "Zip_Code": "25271"
  },
  {
    "Hospital_Name": "Massachusetts General Hospital",
    "Hospital_Address": "275 Cambridge St, Boston",
    "Hospital_Phone_Number": "617-250-7521",
    "State": "ΜΑ",
    "Zip_Code": "02130"
  },
  {
    "Hospital_Name": "St. Johns Episcopal Hospital",
    "Hospital_Address": "327 Beach 19th St, Far Rockaway",
    "Hospital_Phone_Number": "718-654-7412",
    "State": "NY",
    "Zip_Code": "11691"
  }
]